{
  "type": "FeatureCollection",
  "features": [
    {
      "type": "Feature",
      "properties": {
        "norad_id": 66498,
        "name": "STARLINK-35907",
        "group": "last-30-days",
        "lat": 23.149498602266313,
        "lon": 136.01383790638508,
        "alt_km": 440.4228797053938,
        "timestamp": "2025-12-15T14:57:56.619997+00:00",
        "meta_object_name": "STARLINK-35907",
        "meta_object_id": "2025-263P",
        "meta_epoch": "2025-12-14T20:00:06.000192",
        "meta_mean_motion": 15.40652465,
        "meta_eccentricity": 0.00017894,
        "meta_inclination": 42.9998,
        "meta_ra_of_asc_node": 113.257,
        "meta_arg_of_pericenter": 285.4199,
        "meta_mean_anomaly": 41.8856,
        "meta_ephemeris_type": 0,
        "meta_classification_type": "U",
        "meta_norad_cat_id": 66498,
        "meta_element_set_no": 999,
        "meta_rev_at_epoch": 597,
        "meta_bstar": 0.0020834317,
        "meta_mean_motion_dot": 0.00087594,
        "meta_mean_motion_ddot": 0,
        "tle_line1": "1 66498U 25263P   25348.83340278  .00087594  00000+0  20834-2 0  9999",
        "tle_line2": "2 66498  42.9998 113.2570 0001789 285.4199  41.8856 15.40652465  5979"
      },
      "geometry": {
        "type": "Point",
        "coordinates": [
          136.01383790638508,
          23.149498602266313
        ]
      }
    },
    {
      "type": "Feature",
      "properties": {
        "norad_id": 66499,
        "name": "STARLINK-35816",
        "group": "last-30-days",
        "lat": 40.57587735527796,
        "lon": 175.39319589395745,
        "alt_km": 438.197525225949,
        "timestamp": "2025-12-15T14:57:56.620006+00:00",
        "meta_object_name": "STARLINK-35816",
        "meta_object_id": "2025-263Q",
        "meta_epoch": "2025-12-14T20:00:06.000192",
        "meta_mean_motion": 15.40652262,
        "meta_eccentricity": 0.00015682,
        "meta_inclination": 42.9998,
        "meta_ra_of_asc_node": 113.1666,
        "meta_arg_of_pericenter": 283.2065,
        "meta_mean_anomaly": 81.432,
        "meta_ephemeris_type": 0,
        "meta_classification_type": "U",
        "meta_norad_cat_id": 66499,
        "meta_element_set_no": 999,
        "meta_rev_at_epoch": 597,
        "meta_bstar": 0.0020122266,
        "meta_mean_motion_dot": 0.00084555,
        "meta_mean_motion_ddot": 0,
        "tle_line1": "1 66499U 25263Q   25348.83340278  .00084555  00000+0  20122-2 0  9994",
        "tle_line2": "2 66499  42.9998 113.1666 0001568 283.2065  81.4320 15.40652262  5979"
      },
      "geometry": {
        "type": "Point",
        "coordinates": [
          175.39319589395745,
          40.57587735527796
        ]
      }
    },
    {
      "type": "Feature",
      "properties": {
        "norad_id": 66500,
        "name": "STARLINK-35894",
        "group": "last-30-days",
        "lat": -27.561177000456127,
        "lon": 74.83190687057643,
        "alt_km": 476.94253078980637,
        "timestamp": "2025-12-15T14:57:56.620015+00:00",
        "meta_object_name": "STARLINK-35894",
        "meta_object_id": "2025-263R",
        "meta_epoch": "2025-12-14T20:00:06.000192",
        "meta_mean_motion": 15.32902045,
        "meta_eccentricity": 0.00014099,
        "meta_inclination": 42.9998,
        "meta_ra_of_asc_node": 113.3849,
        "meta_arg_of_pericenter": 285.8586,
        "meta_mean_anomaly": 349.8986,
        "meta_ephemeris_type": 0,
        "meta_classification_type": "U",
        "meta_norad_cat_id": 66500,
        "meta_element_set_no": 999,
        "meta_rev_at_epoch": 597,
        "meta_bstar": -0.057715439,
        "meta_mean_motion_dot": -0.01695789,
        "meta_mean_motion_ddot": 0,
        "tle_line1": "1 66500U 25263R   25348.83340278 -.01695789  00000+0 -57715-1 0  9994",
        "tle_line2": "2 66500  42.9998 113.3849 0001409 285.8586 349.8986 15.32902045  5974"
      },
      "geometry": {
        "type": "Point",
        "coordinates": [
          74.83190687057643,
          -27.561177000456127
        ]
      }
    },
    {
      "type": "Feature",
      "properties": {
        "norad_id": 66501,
        "name": "STARLINK-35897",
        "group": "last-30-days",
        "lat": 42.52609346844744,
        "lon": -151.2634627413352,
        "alt_km": 437.9977055113304,
        "timestamp": "2025-12-15T14:57:56.620024+00:00",
        "meta_object_name": "STARLINK-35897",
        "meta_object_id": "2025-263S",
        "meta_epoch": "2025-12-14T20:00:06.000192",
        "meta_mean_motion": 15.40653693,
        "meta_eccentricity": 0.00014742,
        "meta_inclination": 43,
        "meta_ra_of_asc_node": 113.1061,
        "meta_arg_of_pericenter": 284.5148,
        "meta_mean_anomaly": 105.0005,
        "meta_ephemeris_type": 0,
        "meta_classification_type": "U",
        "meta_norad_cat_id": 66501,
        "meta_element_set_no": 999,
        "meta_rev_at_epoch": 597,
        "meta_bstar": 0.0020553186,
        "meta_mean_motion_dot": 0.00086397,
        "meta_mean_motion_ddot": 0,
        "tle_line1": "1 66501U 25263S   25348.83340278  .00086397  00000+0  20553-2 0  9992",
        "tle_line2": "2 66501  43.0000 113.1061 0001474 284.5148 105.0005 15.40653693  5972"
      },
      "geometry": {
        "type": "Point",
        "coordinates": [
          -151.2634627413352,
          42.52609346844744
        ]
      }
    },
    {
      "type": "Feature",
      "properties": {
        "norad_id": 66502,
        "name": "STARLINK-35922",
        "group": "last-30-days",
        "lat": -34.694833833392515,
        "lon": -23.811324612608193,
        "alt_km": 416.4417902645946,
        "timestamp": "2025-12-15T14:57:56.620034+00:00",
        "meta_object_name": "STARLINK-35922",
        "meta_object_id": "2025-263T",
        "meta_epoch": "2025-12-13T18:40:05.847744",
        "meta_mean_motion": 15.50532408,
        "meta_eccentricity": 0.00014149,
        "meta_inclination": 43.0006,
        "meta_ra_of_asc_node": 119.0096,
        "meta_arg_of_pericenter": 287.71,
        "meta_mean_anomaly": 72.3606,
        "meta_ephemeris_type": 0,
        "meta_classification_type": "U",
        "meta_norad_cat_id": 66502,
        "meta_element_set_no": 999,
        "meta_rev_at_epoch": 572,
        "meta_bstar": 0.0020202122,
        "meta_mean_motion_dot": 0.00119805,
        "meta_mean_motion_ddot": 0,
        "tle_line1": "1 66502U 25263T   25347.77784546  .00119805  00000+0  20202-2 0  9997",
        "tle_line2": "2 66502  43.0006 119.0096 0001414 287.7100  72.3606 15.50532408  5726"
      },
      "geometry": {
        "type": "Point",
        "coordinates": [
          -23.811324612608193,
          -34.694833833392515
        ]
      }
    },
    {
      "type": "Feature",
      "properties": {
        "norad_id": 66503,
        "name": "STARLINK-35917",
        "group": "last-30-days",
        "lat": 28.91232040560187,
        "lon": -107.88918487890031,
        "alt_km": 440.26671378567335,
        "timestamp": "2025-12-15T14:57:56.620043+00:00",
        "meta_object_name": "STARLINK-35917",
        "meta_object_id": "2025-263U",
        "meta_epoch": "2025-12-14T20:00:06.000192",
        "meta_mean_motion": 15.40652611,
        "meta_eccentricity": 0.0001836,
        "meta_inclination": 43.0001,
        "meta_ra_of_asc_node": 113.0142,
        "meta_arg_of_pericenter": 280.616,
        "meta_mean_anomaly": 146.2112,
        "meta_ephemeris_type": 0,
        "meta_classification_type": "U",
        "meta_norad_cat_id": 66503,
        "meta_element_set_no": 999,
        "meta_rev_at_epoch": 597,
        "meta_bstar": 0.0020820193,
        "meta_mean_motion_dot": 0.00087534,
        "meta_mean_motion_ddot": 0,
        "tle_line1": "1 66503U 25263U   25348.83340278  .00087534  00000+0  20820-2 0  9995",
        "tle_line2": "2 66503  43.0001 113.0142 0001836 280.6160 146.2112 15.40652611  5972"
      },
      "geometry": {
        "type": "Point",
        "coordinates": [
          -107.88918487890031,
          28.91232040560187
        ]
      }
    },
    {
      "type": "Feature",
      "properties": {
        "norad_id": 66504,
        "name": "STARLINK-35916",
        "group": "last-30-days",
        "lat": -25.145578882616075,
        "lon": -39.73108948004281,
        "alt_km": 445.70385773482485,
        "timestamp": "2025-12-15T14:57:56.620052+00:00",
        "meta_object_name": "STARLINK-35916",
        "meta_object_id": "2025-263V",
        "meta_epoch": "2025-12-14T10:01:00.331680",
        "meta_mean_motion": 15.40690154,
        "meta_eccentricity": 9.839e-05,
        "meta_inclination": 42.9953,
        "meta_ra_of_asc_node": 116.9698,
        "meta_arg_of_pericenter": 265.9506,
        "meta_mean_anomaly": 94.1238,
        "meta_ephemeris_type": 0,
        "meta_classification_type": "U",
        "meta_norad_cat_id": 66504,
        "meta_element_set_no": 999,
        "meta_rev_at_epoch": 580,
        "meta_bstar": 0.001204367,
        "meta_mean_motion_dot": 0.00050322,
        "meta_mean_motion_ddot": 0,
        "tle_line1": "1 66504U 25263V   25348.41736495  .00050322  00000+0  12044-2 0  9994",
        "tle_line2": "2 66504  42.9953 116.9698 0000983 265.9506  94.1238 15.40690154  5803"
      },
      "geometry": {
        "type": "Point",
        "coordinates": [
          -39.73108948004281,
          -25.145578882616075
        ]
      }
    }
  ]
}